OBJECT_NAME,OBJECT_ID,EPOCH,MEAN_MOTION,ECCENTRICITY,INCLINATION,RA_OF_ASC_NODE,ARG_OF_PERICENTER,MEAN_ANOMALY,EPHEMERIS_TYPE,CLASSIFICATION_TYPE,NORAD_CAT_ID,ELEMENT_SET_NO,REV_AT_EPOCH,BSTAR,MEAN_MOTION_DOT,MEAN_MOTION_DDOT
STRIX-8,2026-146A,2026-07-12T00:46:18.469344,15.04418093,.00076748,41.9901,30.6152,1.1720,358.9123,0,U,69701,999,230,.20604091E-3,.2738E-4,0
STARLINK-38055,2026-147A,2026-07-12T01:37:09.286176,15.80956769,.00017608,97.2843,229.2730,132.8641,227.2775,0,U,69704,999,336,.16309453E-2,.326324E-2,0
STARLINK-37898,2026-147B,2026-07-12T01:35:58.119360,15.80922108,.00016295,97.2835,229.2730,118.2701,241.8732,0,U,69705,999,336,.12540477E-2,.248228E-2,0
STARLINK-37970,2026-147C,2026-07-12T01:34:53.107680,15.80956737,.00013419,97.2833,229.2745,127.5244,232.6147,0,U,69706,999,336,.16158576E-2,.323187E-2,0
STARLINK-37975,2026-147D,2026-07-12T01:33:47.816064,15.80913942,.00013489,97.2854,229.2773,117.2688,242.8718,0,U,69707,999,336,.12271634E-2,.242656E-2,0
STARLINK-37972,2026-147E,2026-07-12T01:32:43.073952,15.80827911,.00004953,97.2841,229.2771,86.3056,273.8269,0,U,69708,999,336,.47503849E-3,.91862E-3,0
STARLINK-37963,2026-147F,2026-07-12T01:31:38.253216,15.80920898,.00015754,97.2827,229.2768,122.0442,238.0980,0,U,69709,999,336,.10970774E-2,.216328E-2,0
STARLINK-37969,2026-147G,2026-07-12T01:30:33.449760,15.80939677,.00013454,97.2838,229.2795,126.3685,233.7708,0,U,69710,999,336,.14639462E-2,.291488E-2,0
STARLINK-37956,2026-147H,2026-07-12T01:29:28.486464,15.80949346,.00014303,97.2834,229.2802,121.6110,238.5298,0,U,69711,999,336,.15072405E-2,.300561E-2,0
STARLINK-38043,2026-147J,2026-07-12T01:28:23.511936,15.80902541,.00015005,97.2839,229.2807,114.1060,246.0365,0,U,69712,999,336,.93665068E-3,.183827E-2,0
STARLINK-38020,2026-147K,2026-07-11T14:49:12.815616,15.80900509,.0000736,97.2834,228.8161,76.1831,283.9519,0,U,69713,999,329,.11658931E-2,.230058E-2,0
STARLINK-38059,2026-147L,2026-07-12T01:26:13.701120,15.80950249,.0001086,97.2840,229.2833,134.5027,225.6330,0,U,69714,999,336,.16672995E-2,.333796E-2,0
STARLINK-38061,2026-147M,2026-07-12T01:25:09.618240,15.80901816,.00014675,97.2856,229.2858,113.3234,246.8189,0,U,69715,999,336,.13071696E-2,.258827E-2,0
STARLINK-38060,2026-147N,2026-07-12T01:24:03.868704,15.80894957,.00012991,97.2840,229.2877,124.5105,235.6286,0,U,69716,999,336,.89499495E-3,.175413E-2,0
STARLINK-38040,2026-147P,2026-07-12T01:22:59.086848,15.80874252,.00004072,97.2855,229.2871,64.6612,295.4698,0,U,69717,999,336,.87622101E-3,.171491E-2,0
STARLINK-37989,2026-147Q,2026-07-12T06:00:02.000160,15.80884347,.00013923,97.2835,229.4918,92.5783,286.0008,0,U,69718,999,336,-.6462672E-3,-.122595E-2,0
STARLINK-38039,2026-147R,2026-07-10T12:53:07.505952,15.81001041,.00012944,97.2855,227.6808,335.4308,24.6899,0,U,69719,999,312,.17182608E-2,.345258E-2,0
STARLINK-38003,2026-147S,2026-07-12T01:19:43.847040,15.80873645,.00012298,97.2837,229.2885,108.8622,251.2780,0,U,69720,999,336,.85430257E-3,.167108E-2,0
STARLINK-38014,2026-147T,2026-07-12T01:18:39.229344,15.80873694,.00011487,97.2856,229.2908,98.6566,261.4832,0,U,69721,999,336,.71398314E-3,.139188E-2,0
STARLINK-37915,2026-147U,2026-07-12T01:17:34.054368,15.80875943,.00009082,97.2856,229.2920,109.5452,250.5915,0,U,69722,999,336,.81081926E-3,.158452E-2,0
STARLINK-38007,2026-147V,2026-07-12T06:00:02.000160,15.80885537,.00015866,97.2831,229.4928,94.0957,287.9680,0,U,69723,999,336,-.67977586E-3,-.128864E-2,0
STARLINK-38008,2026-147W,2026-07-12T01:15:24.353280,15.80872397,.00013697,97.2836,229.2928,117.3677,242.7731,0,U,69724,999,336,.72872566E-3,.142105E-2,0
STARLINK-38021,2026-147X,2026-07-12T01:14:19.467744,15.80917671,.00000809,97.2858,229.2953,94.1595,265.9683,0,U,69725,999,336,.14622307E-2,.290855E-2,0
STARLINK-38015,2026-147Y,2026-07-12T01:13:14.333376,15.80860275,.00011567,97.2832,229.2944,101.8323,258.3075,0,U,69726,999,336,.60660416E-3,.117871E-2,0
STARLINK-38010,2026-147Z,2026-07-12T06:00:02.000160,15.75274210,.0001072,97.2842,229.4765,101.8301,241.4158,0,U,69727,999,336,-.12969211E-2,-.190023E-2,0
SXM-11,2026-148A,2026-07-11T11:07:38.845920,1.00375745,.00059681,0.1236,265.1738,280.4525,149.7740,0,U,69728,999,28,0,.4E-7,0
HAIYANG-2E,2026-149A,2026-07-11T23:13:00.660000,13.79314861,.0001572,99.3452,199.9355,95.1326,265.0006,0,U,69737,999,138,-.54312E-4,-.1E-5,0
